1 52900U 22065G   24233.34741105  .00002524  00000-0  53611-3 0  9992
2 52900  98.1315  12.7117 0006775 314.2572  45.8072 14.59937531113214
